[
    {
        "Altitude(m)": 622200.1405542487,
        "Argument of Periapsis(deg)": 0.0,
        "Eccentricity": 0.0,
        "Inclination(deg)": 60.0,
        "Latitude(deg)": -52.1626302825897,
        "Longitude(deg)": -127.63933539876125,
        "Mean Anomaly(deg)": 294.5455,
        "RAAN(deg)": 20.0,
        "Satellite Name": "Test1 106",
        "Satellite Number": 106,
        "Semi-Major Axis(m)": 6980739.136638005,
        "Time(s)": 0
    },
    {
        "Altitude(m)": 622058.3087397261,
        "Argument of Periapsis(deg)": 0.00010418945913296404,
        "Eccentricity": 0.0,
        "Inclination(deg)": 60.0,
        "Latitude(deg)": -51.7993808542886,
        "Longitude(deg)": -126.8712748049998,
        "Mean Anomaly(deg)": 295.1656061454619,
        "RAAN(deg)": 19.99957995086026,
        "Satellite Name": "Test1 106",
        "Satellite Number": 106,
        "Semi-Major Axis(m)": 6980739.136638005,
        "Time(s)": 10
    }
]